{
  "type": "FeatureCollection",
  "features": [
    {
      "type": "Feature",
      "properties": {
        "norad_id": 38722,
        "name": "FENGYUN 1C DEB",
        "group": "fengyun-1c-debris",
        "lat": -61.18350568187213,
        "lon": 117.1735494295198,
        "alt_km": 751.8874844103466,
        "timestamp": "2025-12-25T19:00:39.641062+00:00",
        "meta_object_name": "FENGYUN 1C DEB",
        "meta_object_id": "1999-025ETP",
        "meta_epoch": "2025-12-23T03:05:34.681632",
        "meta_mean_motion": 14.58641148,
        "meta_eccentricity": 0.0145982,
        "meta_inclination": 99.353,
        "meta_ra_of_asc_node": 96.7446,
        "meta_arg_of_pericenter": 63.5175,
        "meta_mean_anomaly": 298.091,
        "meta_ephemeris_type": 0,
        "meta_classification_type": "U",
        "meta_norad_cat_id": 38722,
        "meta_element_set_no": 999,
        "meta_rev_at_epoch": 70615,
        "meta_bstar": 0.0021733607,
        "meta_mean_motion_dot": 0.00011693,
        "meta_mean_motion_ddot": 0,
        "tle_line1": "1 38722U 99025ETP 25357.12887363  .00011693  00000+0  21734-2 0  9995",
        "tle_line2": "2 38722  99.3530  96.7446 0145982  63.5175 298.0910 14.58641148706155"
      },
      "geometry": {
        "type": "Point",
        "coordinates": [
          117.1735494295198,
          -61.18350568187213
        ]
      }
    },
    {
      "type": "Feature",
      "properties": {
        "norad_id": 38725,
        "name": "FENGYUN 1C DEB",
        "group": "fengyun-1c-debris",
        "lat": 27.667399604173394,
        "lon": -49.75405262920748,
        "alt_km": 737.2456893662456,
        "timestamp": "2025-12-25T19:00:39.641072+00:00",
        "meta_object_name": "FENGYUN 1C DEB",
        "meta_object_id": "1999-025ETS",
        "meta_epoch": "2025-12-24T14:01:00.000192",
        "meta_mean_motion": 14.43026373,
        "meta_eccentricity": 0.00354571,
        "meta_inclination": 98.871,
        "meta_ra_of_asc_node": 124.2922,
        "meta_arg_of_pericenter": 222.3443,
        "meta_mean_anomaly": 137.5008,
        "meta_ephemeris_type": 0,
        "meta_classification_type": "U",
        "meta_norad_cat_id": 38725,
        "meta_element_set_no": 999,
        "meta_rev_at_epoch": 73523,
        "meta_bstar": 0.0028859508,
        "meta_mean_motion_dot": 9.707e-05,
        "meta_mean_motion_ddot": 0,
        "tle_line1": "1 38725U 99025ETS 25358.58402778  .00009707  00000+0  28860-2 0  9992",
        "tle_line2": "2 38725  98.8710 124.2922 0035457 222.3443 137.5008 14.43026373735233"
      },
      "geometry": {
        "type": "Point",
        "coordinates": [
          -49.75405262920748,
          27.667399604173394
        ]
      }
    },
    {
      "type": "Feature",
      "properties": {
        "norad_id": 38726,
        "name": "FENGYUN 1C DEB",
        "group": "fengyun-1c-debris",
        "lat": 63.43865835664736,
        "lon": -135.01407262594554,
        "alt_km": 530.6976140809875,
        "timestamp": "2025-12-25T19:00:39.641083+00:00",
        "meta_object_name": "FENGYUN 1C DEB",
        "meta_object_id": "1999-025ETT",
        "meta_epoch": "2025-12-18T07:44:42.644256",
        "meta_mean_motion": 15.04018095,
        "meta_eccentricity": 0.00236822,
        "meta_inclination": 99.1359,
        "meta_ra_of_asc_node": 17.3874,
        "meta_arg_of_pericenter": 108.0917,
        "meta_mean_anomaly": 252.2886,
        "meta_ephemeris_type": 0,
        "meta_classification_type": "U",
        "meta_norad_cat_id": 38726,
        "meta_element_set_no": 999,
        "meta_rev_at_epoch": 69939,
        "meta_bstar": 0.0056393313,
        "meta_mean_motion_dot": 0.00079186,
        "meta_mean_motion_ddot": 0,
        "tle_line1": "1 38726U 99025ETT 25352.32271579  .00079186  00000+0  56393-2 0  9992",
        "tle_line2": "2 38726  99.1359  17.3874 0023682 108.0917 252.2886 15.04018095699393"
      },
      "geometry": {
        "type": "Point",
        "coordinates": [
          -135.01407262594554,
          63.43865835664736
        ]
      }
    },
    {
      "type": "Feature",
      "properties": {
        "norad_id": 38728,
        "name": "FENGYUN 1C DEB",
        "group": "fengyun-1c-debris",
        "lat": -75.862468191495,
        "lon": 128.51257900015378,
        "alt_km": 688.1473068447131,
        "timestamp": "2025-12-25T19:00:39.641093+00:00",
        "meta_object_name": "FENGYUN 1C DEB",
        "meta_object_id": "1999-025ETV",
        "meta_epoch": "2025-12-25T05:03:00.154944",
        "meta_mean_motion": 14.70785442,
        "meta_eccentricity": 0.00747805,
        "meta_inclination": 99.2633,
        "meta_ra_of_asc_node": 348.24,
        "meta_arg_of_pericenter": 16.545,
        "meta_mean_anomaly": 45.2221,
        "meta_ephemeris_type": 0,
        "meta_classification_type": "U",
        "meta_norad_cat_id": 38728,
        "meta_element_set_no": 999,
        "meta_rev_at_epoch": 65794,
        "meta_bstar": 0.0015327051,
        "meta_mean_motion_dot": 9.718e-05,
        "meta_mean_motion_ddot": 0,
        "tle_line1": "1 38728U 99025ETV 25359.21041846  .00009718  00000+0  15327-2 0  9997",
        "tle_line2": "2 38728  99.2633 348.2400 0074780  16.5450  45.2221 14.70785442657949"
      },
      "geometry": {
        "type": "Point",
        "coordinates": [
          128.51257900015378,
          -75.862468191495
        ]
      }
    },
    {
      "type": "Feature",
      "properties": {
        "norad_id": 38789,
        "name": "FENGYUN 1C DEB",
        "group": "fengyun-1c-debris",
        "lat": 59.6907766777782,
        "lon": 81.91894480756567,
        "alt_km": 831.9641045237922,
        "timestamp": "2025-12-25T19:00:39.641104+00:00",
        "meta_object_name": "FENGYUN 1C DEB",
        "meta_object_id": "1999-025EUD",
        "meta_epoch": "2025-12-16T11:04:27.892416",
        "meta_mean_motion": 14.45831603,
        "meta_eccentricity": 0.02075268,
        "meta_inclination": 98.8566,
        "meta_ra_of_asc_node": 236.7044,
        "meta_arg_of_pericenter": 14.1855,
        "meta_mean_anomaly": 164.1034,
        "meta_ephemeris_type": 0,
        "meta_classification_type": "U",
        "meta_norad_cat_id": 38789,
        "meta_element_set_no": 999,
        "meta_rev_at_epoch": 61899,
        "meta_bstar": 0.00050950207,
        "meta_mean_motion_dot": 2.303e-05,
        "meta_mean_motion_ddot": 0,
        "tle_line1": "1 38789U 99025EUD 25350.46143394  .00002303  00000+0  50950-3 0  9998",
        "tle_line2": "2 38789  98.8566 236.7044 0207526  14.1855 164.1034 14.45831603618998"
      },
      "geometry": {
        "type": "Point",
        "coordinates": [
          81.91894480756567,
          59.6907766777782
        ]
      }
    },
    {
      "type": "Feature",
      "properties": {
        "norad_id": 38795,
        "name": "FENGYUN 1C DEB",
        "group": "fengyun-1c-debris",
        "lat": -24.043428907566188,
        "lon": -163.15799121142038,
        "alt_km": 793.0477476469987,
        "timestamp": "2025-12-25T19:00:39.641114+00:00",
        "meta_object_name": "FENGYUN 1C DEB",
        "meta_object_id": "1999-025EUK",
        "meta_epoch": "2025-12-19T08:28:58.853280",
        "meta_mean_motion": 13.29929799,
        "meta_eccentricity": 0.050261,
        "meta_inclination": 98.6991,
        "meta_ra_of_asc_node": 15.2992,
        "meta_arg_of_pericenter": 239.3725,
        "meta_mean_anomaly": 115.6931,
        "meta_ephemeris_type": 0,
        "meta_classification_type": "U",
        "meta_norad_cat_id": 38795,
        "meta_element_set_no": 999,
        "meta_rev_at_epoch": 78600,
        "meta_bstar": 0.0020267,
        "meta_mean_motion_dot": 1.866e-05,
        "meta_mean_motion_ddot": 0,
        "tle_line1": "1 38795U 99025EUK 25353.35345895  .00001866  00000+0  20267-2 0  9996",
        "tle_line2": "2 38795  98.6991  15.2992 0502610 239.3725 115.6931 13.29929799786006"
      },
      "geometry": {
        "type": "Point",
        "coordinates": [
          -163.15799121142038,
          -24.043428907566188
        ]
      }
    },
    {
      "type": "Feature",
      "properties": {
        "norad_id": 38797,
        "name": "FENGYUN 1C DEB",
        "group": "fengyun-1c-debris",
        "lat": 64.60249382676182,
        "lon": -128.33088704162824,
        "alt_km": 1115.1183866471101,
        "timestamp": "2025-12-25T19:00:39.641124+00:00",
        "meta_object_name": "FENGYUN 1C DEB",
        "meta_object_id": "1999-025EUM",
        "meta_epoch": "2025-12-21T10:37:18.137856",
        "meta_mean_motion": 13.61613976,
        "meta_eccentricity": 0.02449187,
        "meta_inclination": 99.4843,
        "meta_ra_of_asc_node": 248.0555,
        "meta_arg_of_pericenter": 199.0138,
        "meta_mean_anomaly": 160.1737,
        "meta_ephemeris_type": 0,
        "meta_classification_type": "U",
        "meta_norad_cat_id": 38797,
        "meta_element_set_no": 999,
        "meta_rev_at_epoch": 59401,
        "meta_bstar": 0.00019998345,
        "meta_mean_motion_dot": 1.44e-06,
        "meta_mean_motion_ddot": 0,
        "tle_line1": "1 38797U 99025EUM 25355.44257104  .00000144  00000+0  19998-3 0  9993",
        "tle_line2": "2 38797  99.4843 248.0555 0244918 199.0138 160.1737 13.61613976594018"
      },
      "geometry": {
        "type": "Point",
        "coordinates": [
          -128.33088704162824,
          64.60249382676182
        ]
      }
    }
  ]
}